IRIDIUM 36              
1 24967U 97056C   25001.36048645  .00001308  00000+0  43210-3 0  9993
2 24967  86.3961 243.0330 0001919  89.1880 270.9538 14.37326677428253
IRIDIUM 39              
1 25042U 97069D   25001.91109162  .00006278  00000+0  16539-2 0  9999
2 25042  86.3913 282.4295 0019293 136.3434 223.9300 14.48797410424885
IRIDIUM 38              
1 25043U 97069E   25001.78980578  .00001855  00000+0  60936-3 0  9990
2 25043  86.3963 303.1863 0000831  29.2297 330.8947 14.37827808422042
IRIDIUM 42              
1 25077U 97077A   25001.80190266  .00001684  00000+0  57238-3 0  9997
2 25077  86.3969 309.1471 0001729  69.3909 290.7473 14.36085617417313
IRIDIUM 44              
1 25078U 97077B   25002.20441941  .00002031  00000+0  63982-3 0  9992
2 25078  86.3958 291.3352 0001716 138.1342 221.9988 14.39958158419843
IRIDIUM 45              
1 25104U 97082A   25001.58713437  .00054156  00000+0  23801-2 0  9990
2 25104  86.3648 128.2905 0134080 232.1189 126.7865 15.13858233426767
IRIDIUM 24              
1 25105U 97082B   25001.83455917  .00001955  00000+0  59285-3 0  9990
2 25105  86.3939 150.8261 0009452 267.3938  92.6180 14.41781387419244
IRIDIUM 51              
1 25262U 98018A   25001.83164750  .00077963  00000+0  25069-2 0  9990
2 25262  86.3919 137.3001 0112755 163.1244 197.3804 15.25919305421540
